[{"OBJECT_NAME":"STARLINK-2019","OBJECT_ID":"2021-012X","EPOCH":"2026-03-09T22:00:01.999584","MEAN_MOTION":15.57979117,"ECCENTRICITY":0.00041465,"INCLINATION":53.0464,"RA_OF_ASC_NODE":301.7175,"ARG_OF_PERICENTER":110.3422,"MEAN_ANOMALY":110.359,"EPHEMERIS_TYPE":0,"CLASSIFICATION_TYPE":"U","NORAD_CAT_ID":47641,"ELEMENT_SET_NO":999,"REV_AT_EPOCH":591,"BSTAR":0.0015842101,"MEAN_MOTION_DOT":0.00122178,"MEAN_MOTION_DDOT":0},{"OBJECT_NAME":"OBJECT J","OBJECT_ID":"2024-024J","EPOCH":"2026-03-09T22:26:40.644960","MEAN_MOTION":15.61039884,"ECCENTRICITY":0.00047739,"INCLINATION":97.3173,"RA_OF_ASC_NODE":156.0296,"ARG_OF_PERICENTER":106.4424,"MEAN_ANOMALY":253.7358,"EPHEMERIS_TYPE":0,"CLASSIFICATION_TYPE":"U","NORAD_CAT_ID":58925,"ELEMENT_SET_NO":999,"REV_AT_EPOCH":15415,"BSTAR":0.00080019635,"MEAN_MOTION_DOT":0.00067611,"MEAN_MOTION_DDOT":0}]
